CCSDS_OMM_VERS,COMMENT,CREATION_DATE,ORIGINATOR,OBJECT_NAME,OBJECT_ID,CENTER_NAME,REF_FRAME,TIME_SYSTEM,MEAN_ELEMENT_THEORY,EPOCH,MEAN_MOTION,ECCENTRICITY,INCLINATION,RA_OF_ASC_NODE,ARG_OF_PERICENTER,MEAN_ANOMALY,EPHEMERIS_TYPE,CLASSIFICATION_TYPE,NORAD_CAT_ID,ELEMENT_SET_NO,REV_AT_EPOCH,BSTAR,MEAN_MOTION_DOT,MEAN_MOTION_DDOT,SEMIMAJOR_AXIS,PERIOD,APOAPSIS,PERIAPSIS,OBJECT_TYPE,RCS_SIZE,COUNTRY_CODE,LAUNCH_DATE,SITE,DECAY_DATE,FILE,GP_ID,TLE_LINE0,TLE_LINE1,TLE_LINE2
2,GENERATED VIA SPACE-TRACK.ORG API,2021-06-16T18:06:33,18 SPCS,BREEZE-M R/B,2000-029B,EARTH,TEME,UTC,SGP4,2021-06-16T13:41:16.136160,1.00404511,0.0262898,12.6252,19.538,292.5564,240.3365,0,U,26373,999,7710,0.0,-2.27e-06,0,42127.565,1434.199,36856.955,34641.905,ROCKET BODY,LARGE,CIS,2000-06-06,TTMTR,,3056849,179238712,0 BREEZE-M R/B,1 26373U 00029B   21167.57032565 -.00000227  00000-0  00000-0 0  9994,2 26373  12.6252  19.5380 0262898 292.5564 240.3365  1.00404511 77109
2,GENERATED VIA SPACE-TRACK.ORG API,2021-06-16T22:26:11,18 SPCS,BREEZE-M R/B,2000-029B,EARTH,TEME,UTC,SGP4,2021-06-16T13:41:16.136160,1.00404511,0.0262898,12.6252,19.538,292.5564,240.3365,0,U,26373,999,7709,0.0,-2.27e-06,0,42127.565,1434.199,36856.955,34641.905,ROCKET BODY,LARGE,CIS,2000-06-06,TTMTR,,3056890,179255398,0 BREEZE-M R/B,1 26373U 00029B   21167.57032565 -.00000227  00000-0  00000+0 0  9993,2 26373  12.6252  19.5380 0262898 292.5564 240.3365  1.00404511 77097
2,GENERATED VIA SPACE-TRACK.ORG API,2021-06-17T20:22:58,18 SPCS,BREEZE-M R/B,2000-029B,EARTH,TEME,UTC,SGP4,2021-06-17T02:12:42.660288,1.00404445,0.0262894,12.6254,19.5342,292.5676,68.9519,0,U,26373,999,7711,0.0,-2.3e-06,0,42127.584,1434.199,36856.957,34641.94,ROCKET BODY,LARGE,CIS,2000-06-06,TTMTR,,3057483,179297198,0 BREEZE-M R/B,1 26373U 00029B   21168.09216042 -.00000230  00000-0  00000-0 0  9990,2 26373  12.6254  19.5342 0262894 292.5676  68.9519  1.00404445 77111
2,GENERATED VIA SPACE-TRACK.ORG API,2021-06-18T17:33:08,18 SPCS,BREEZE-M R/B,2000-029B,EARTH,TEME,UTC,SGP4,2021-06-18T01:53:32.778240,1.00404313,0.0262893,12.6259,19.527,292.5883,65.5882,0,U,26373,999,7712,0.0,-2.36e-06,0,42127.62,1434.201,36856.991,34641.98,ROCKET BODY,LARGE,CIS,2000-06-06,TTMTR,,3057924,179353710,0 BREEZE-M R/B,1 26373U 00029B   21169.07885160 -.00000236  00000-0  00000-0 0  9998,2 26373  12.6259  19.5270 0262893 292.5883  65.5882  1.00404313 77126
2,GENERATED VIA SPACE-TRACK.ORG API,2021-06-19T03:56:02,18 SPCS,BREEZE-M R/B,2000-029B,EARTH,TEME,UTC,SGP4,2021-06-18T13:55:15.359232,1.0040425,0.026289,12.6261,19.5234,292.5986,246.7413,0,U,26373,999,7712,0.0,-2.39e-06,0,42127.638,1434.202,36856.997,34642.01,ROCKET BODY,LARGE,CIS,2000-06-06,TTMTR,,3057927,179376964,0 BREEZE-M R/B,1 26373U 00029B   21169.58003888 -.00000239  00000-0  00000-0 0  9996,2 26373  12.6261  19.5234 0262890 292.5986 246.7413  1.00404250 77123
2,GENERATED VIA SPACE-TRACK.ORG API,2021-06-20T15:06:14,18 SPCS,BREEZE-M R/B,2000-029B,EARTH,TEME,UTC,SGP4,2021-06-19T02:00:39.811104,1.00404177,0.0262893,12.6264,19.5197,292.6106,68.8204,0,U,26373,999,7712,0.0,-2.42e-06,0,42127.658,1434.203,36857.03,34642.017,ROCKET BODY,LARGE,CIS,2000-06-06,TTMTR,,3058335,179442227,0 BREEZE-M R/B,1 26373U 00029B   21170.08379411 -.00000242  00000-0  00000+0 0  9994,2 26373  12.6264  19.5197 0262893 292.6106  68.8204  1.00404177 77121
2,GENERATED VIA SPACE-TRACK.ORG API,2021-06-20T19:09:00,18 SPCS,BREEZE-M R/B,2000-029B,EARTH,TEME,UTC,SGP4,2021-06-19T02:00:39.811104,1.00404177,0.0262893,12.6264,19.5197,292.6106,68.8204,0,U,26373,999,7713,0.0,-2.43e-06,0,42127.658,1434.203,36857.03,34642.017,ROCKET BODY,LARGE,CIS,2000-06-06,TTMTR,,3058996,179466879,0 BREEZE-M R/B,1 26373U 00029B   21170.08379411 -.00000243  00000-0  00000-0 0  9996,2 26373  12.6264  19.5197 0262893 292.6106  68.8204  1.00404177 77132
2,GENERATED VIA SPACE-TRACK.ORG API,2021-06-21T17:36:10,18 SPCS,BREEZE-M R/B,2000-029B,EARTH,TEME,UTC,SGP4,2021-06-20T17:58:03.219168,1.00403902,0.0262897,12.6271,19.5074,292.6484,310.5719,0,U,26373,999,7714,0.0,-2.57e-06,0,42127.735,1434.207,36857.126,34642.075,ROCKET BODY,LARGE,CIS,2000-06-06,TTMTR,,3059170,179507530,0 BREEZE-M R/B,1 26373U 00029B   21171.74864837 -.00000257  00000-0  00000+0 0  9995,2 26373  12.6271  19.5074 0262897 292.6484 310.5719  1.00403902 77141
2,GENERATED VIA SPACE-TRACK.ORG API,2021-06-21T22:35:29,18 SPCS,BREEZE-M R/B,2000-029B,EARTH,TEME,UTC,SGP4,2021-06-20T17:58:03.219168,1.00403902,0.0262897,12.6271,19.5074,292.6484,310.5719,0,U,26373,999,7714,0.0,-2.58e-06,0,42127.735,1434.207,36857.126,34642.075,ROCKET BODY,LARGE,CIS,2000-06-06,TTMTR,,3060216,179532698,0 BREEZE-M R/B,1 26373U 00029B   21171.74864837 -.00000258  00000-0  00000-0 0  9997,2 26373  12.6271  19.5074 0262897 292.6484 310.5719  1.00403902 77141
2,GENERATED VIA SPACE-TRACK.ORG API,2021-06-22T17:57:38,18 SPCS,BREEZE-M R/B,2000-029B,EARTH,TEME,UTC,SGP4,2021-06-21T14:16:54.664032,1.00403757,0.0262892,12.6275,19.5011,292.6686,256.5071,0,U,26373,999,7715,0.0,-2.66e-06,0,42127.776,1434.209,36857.146,34642.135,ROCKET BODY,LARGE,CIS,2000-06-06,TTMTR,,3060787,179560760,0 BREEZE-M R/B,1 26373U 00029B   21172.59507713 -.00000266  00000-0  00000-0 0  9997,2 26373  12.6275  19.5011 0262892 292.6686 256.5071  1.00403757 77154
2,GENERATED VIA SPACE-TRACK.ORG API,2021-06-23T03:29:12,18 SPCS,BREEZE-M R/B,2000-029B,EARTH,TEME,UTC,SGP4,2021-06-22T14:23:59.919648,1.00403568,0.0262891,12.628,19.4936,292.6932,259.7271,0,U,26373,999,7716,0.0,-2.77e-06,0,42127.829,1434.212,36857.197,34642.191,ROCKET BODY,LARGE,CIS,2000-06-06,TTMTR,,3060788,179584220,0 BREEZE-M R/B,1 26373U 00029B   21173.59999907 -.00000277  00000-0  00000-0 0  9990,2 26373  12.6280  19.4936 0262891 292.6932 259.7271  1.00403568 77166
2,GENERATED VIA SPACE-TRACK.ORG API,2021-06-23T18:27:55,18 SPCS,BREEZE-M R/B,2000-029B,EARTH,TEME,UTC,SGP4,2021-06-23T12:48:04.394880,1.00403382,0.0262888,12.6285,19.4866,292.7178,237.0883,0,U,26373,999,7717,0.0,-2.88e-06,0,42127.881,1434.215,36857.237,34642.254,ROCKET BODY,LARGE,CIS,2000-06-06,TTMTR,,3060806,179607401,0 BREEZE-M R/B,1 26373U 00029B   21174.53338420 -.00000288  00000-0  00000-0 0  9994,2 26373  12.6285  19.4866 0262888 292.7178 237.0883  1.00403382 77175
2,GENERATED VIA SPACE-TRACK.ORG API,2021-06-24T03:14:35,18 SPCS,BREEZE-M R/B,2000-029B,EARTH,TEME,UTC,SGP4,2021-06-23T14:31:11.927424,1.00403369,0.0262888,12.6285,19.4861,292.7192,262.9733,0,U,26373,999,7717,0.0,-2.89e-06,0,42127.884,1434.215,36857.241,34642.258,ROCKET BODY,LARGE,CIS,2000-06-06,TTMTR,,3061167,179636240,0 BREEZE-M R/B,1 26373U 00029B   21174.60499916 -.00000289  00000-0  00000-0 0  9991,2 26373  12.6285  19.4861 0262888 292.7192 262.9733  1.00403369 77172
2,GENERATED VIA SPACE-TRACK.ORG API,2021-06-24T20:27:53,18 SPCS,BREEZE-M R/B,2000-029B,EARTH,TEME,UTC,SGP4,2021-06-24T01:24:50.861664,1.00403276,0.0262895,12.6287,19.4827,292.7325,67.0369,0,U,26373,999,7718,0.0,-2.94e-06,0,42127.91,1434.216,36857.297,34642.254,ROCKET BODY,LARGE,CIS,2000-06-06,TTMTR,,3061782,179669807,0 BREEZE-M R/B,1 26373U 00029B   21175.05892201 -.00000294  00000-0  00000-0 0  9991,2 26373  12.6287  19.4827 0262895 292.7325  67.0369  1.00403276 77189
2,GENERATED VIA SPACE-TRACK.ORG API,2021-06-25T02:27:03,18 SPCS,BREEZE-M R/B,2000-029B,EARTH,TEME,UTC,SGP4,2021-06-24T22:34:24.442752,1.00403088,0.0262888,12.6291,19.4761,292.7548,25.695,0,U,26373,999,7718,0.0,-3.04e-06,0,42127.963,1434.219,36857.322,34642.334,ROCKET BODY,LARGE,CIS,2000-06-06,TTMTR,,3062016,179696137,0 BREEZE-M R/B,1 26373U 00029B   21175.94056068 -.00000304  00000-0  00000-0 0  9994,2 26373  12.6291  19.4761 0262888 292.7548  25.6950  1.00403088 77187
2,GENERATED VIA SPACE-TRACK.ORG API,2021-06-25T06:16:10,18 SPCS,BREEZE-M R/B,2000-029B,EARTH,TEME,UTC,SGP4,2021-06-25T01:16:12.586944,1.00403063,0.0262888,12.6292,19.4752,292.7588,66.306,0,U,26373,999,7718,0.0,-3.04e-06,0,42127.97,1434.219,36857.329,34642.341,ROCKET BODY,LARGE,CIS,2000-06-06,TTMTR,,3062140,179711995,0 BREEZE-M R/B,1 26373U 00029B   21176.05292346 -.00000304  00000-0  00000+0 0  9997,2 26373  12.6292  19.4752 0262888 292.7588  66.3060  1.00403063 77189
2,GENERATED VIA SPACE-TRACK.ORG API,2021-06-25T18:18:24,18 SPCS,BREEZE-M R/B,2000-029B,EARTH,TEME,UTC,SGP4,2021-06-25T01:16:12.586944,1.00403063,0.0262888,12.6292,19.4752,292.7588,66.306,0,U,26373,999,7719,0.0,-3.05e-06,0,42127.97,1434.219,36857.329,34642.341,ROCKET BODY,LARGE,CIS,2000-06-06,TTMTR,,3062308,179722159,0 BREEZE-M R/B,1 26373U 00029B   21176.05292346 -.00000305  00000-0  00000-0 0  9999,2 26373  12.6292  19.4752 0262888 292.7588  66.3060  1.00403063 77190
2,GENERATED VIA SPACE-TRACK.ORG API,2021-06-26T04:03:46,18 SPCS,BREEZE-M R/B,2000-029B,EARTH,TEME,UTC,SGP4,2021-06-25T13:02:04.667712,1.00402958,0.0262873,12.6294,19.4715,292.771,243.4782,0,U,26373,999,7719,0.0,-3.1e-06,0,42127.999,1434.221,36857.296,34642.433,ROCKET BODY,LARGE,CIS,2000-06-06,TTMTR,,3062790,179753855,0 BREEZE-M R/B,1 26373U 00029B   21176.54310958 -.00000310  00000-0  00000-0 0  9999,2 26373  12.6294  19.4715 0262873 292.7710 243.4782  1.00402958 77193
2,GENERATED VIA SPACE-TRACK.ORG API,2021-06-26T17:54:24,18 SPCS,BREEZE-M R/B,2000-029B,EARTH,TEME,UTC,SGP4,2021-06-26T01:07:09.402240,1.00402847,0.0262875,12.6296,19.4678,292.7848,65.4707,0,U,26373,999,7720,0.0,-3.15e-06,0,42128.03,1434.222,36857.336,34642.455,ROCKET BODY,LARGE,CIS,2000-06-06,TTMTR,,3063370,179786928,0 BREEZE-M R/B,1 26373U 00029B   21177.04663660 -.00000315  00000-0  00000-0 0  9991,2 26373  12.6296  19.4678 0262875 292.7848  65.4707  1.00402847 77205
2,GENERATED VIA SPACE-TRACK.ORG API,2021-06-27T04:10:37,18 SPCS,BREEZE-M R/B,2000-029B,EARTH,TEME,UTC,SGP4,2021-06-26T13:16:42.571200,1.00402729,0.0262862,12.6299,19.464,292.7987,248.5859,0,U,26373,999,7720,0.0,-3.19e-06,0,42128.064,1434.224,36857.315,34642.542,ROCKET BODY,LARGE,CIS,2000-06-06,TTMTR,,3063717,179814946,0 BREEZE-M R/B,1 26373U 00029B   21177.55327050 -.00000319  00000-0  00000-0 0  9991,2 26373  12.6299  19.4640 0262862 292.7987 248.5859  1.00402729 77208
